[{"OBJECT_NAME":"STARLINK-3120","OBJECT_ID":"2021-104M","EPOCH":"2026-03-09T18:14:03.876576","MEAN_MOTION":15.08840946,"ECCENTRICITY":0.00012402,"INCLINATION":53.2166,"RA_OF_ASC_NODE":228.8096,"ARG_OF_PERICENTER":91.1489,"MEAN_ANOMALY":268.9645,"EPHEMERIS_TYPE":0,"CLASSIFICATION_TYPE":"U","NORAD_CAT_ID":49419,"ELEMENT_SET_NO":999,"REV_AT_EPOCH":23863,"BSTAR":4.3680992e-5,"MEAN_MOTION_DOT":4.07e-6,"MEAN_MOTION_DDOT":0},{"OBJECT_NAME":"CZ-6A R\/B","OBJECT_ID":"2022-031C","EPOCH":"2026-03-09T19:50:55.360896","MEAN_MOTION":15.07476837,"ECCENTRICITY":0.00174842,"INCLINATION":97.8104,"RA_OF_ASC_NODE":273.2347,"ARG_OF_PERICENTER":181.6412,"MEAN_ANOMALY":178.4761,"EPHEMERIS_TYPE":0,"CLASSIFICATION_TYPE":"U","NORAD_CAT_ID":52152,"ELEMENT_SET_NO":999,"REV_AT_EPOCH":21633,"BSTAR":0.00020233161,"MEAN_MOTION_DOT":3.012e-5,"MEAN_MOTION_DDOT":0}]
